[{"OBJECT_NAME":"STARLINK-1114","OBJECT_ID":"2020-001P","EPOCH":"2026-03-09T22:29:13.634304","MEAN_MOTION":15.50335733,"ECCENTRICITY":0.00083622,"INCLINATION":53.05,"RA_OF_ASC_NODE":328.1784,"ARG_OF_PERICENTER":120.9546,"MEAN_ANOMALY":239.2285,"EPHEMERIS_TYPE":0,"CLASSIFICATION_TYPE":"U","NORAD_CAT_ID":44927,"ELEMENT_SET_NO":999,"REV_AT_EPOCH":34013,"BSTAR":0.0018611875,"MEAN_MOTION_DOT":0.00108516,"MEAN_MOTION_DDOT":0},{"OBJECT_NAME":"ARCSAT-1","OBJECT_ID":"2022-033E","EPOCH":"2026-03-09T04:59:54.555648","MEAN_MOTION":15.50898478,"ECCENTRICITY":0.00053088,"INCLINATION":97.2734,"RA_OF_ASC_NODE":159.2089,"ARG_OF_PERICENTER":185.4192,"MEAN_ANOMALY":174.7004,"EPHEMERIS_TYPE":0,"CLASSIFICATION_TYPE":"U","NORAD_CAT_ID":52161,"ELEMENT_SET_NO":999,"REV_AT_EPOCH":22019,"BSTAR":0.00026094098,"MEAN_MOTION_DOT":0.00015015,"MEAN_MOTION_DDOT":0}]
